[{"OBJECT_NAME":"JILIN-1 GAOFEN 03D47","OBJECT_ID":"2022-167L","EPOCH":"2026-03-09T22:56:46.924224","MEAN_MOTION":15.31686941,"ECCENTRICITY":0.00089304,"INCLINATION":97.6835,"RA_OF_ASC_NODE":234.6581,"ARG_OF_PERICENTER":110.4031,"MEAN_ANOMALY":249.8169,"EPHEMERIS_TYPE":0,"CLASSIFICATION_TYPE":"U","NORAD_CAT_ID":54692,"ELEMENT_SET_NO":999,"REV_AT_EPOCH":18014,"BSTAR":0.00047294748,"MEAN_MOTION_DOT":0.00014417,"MEAN_MOTION_DDOT":0},{"OBJECT_NAME":"STARLINK-32000","OBJECT_ID":"2024-132M","EPOCH":"2026-03-09T09:30:39.030048","MEAN_MOTION":15.30186778,"ECCENTRICITY":0.00015105,"INCLINATION":53.1611,"RA_OF_ASC_NODE":53.9242,"ARG_OF_PERICENTER":98.3792,"MEAN_ANOMALY":261.738,"EPHEMERIS_TYPE":0,"CLASSIFICATION_TYPE":"U","NORAD_CAT_ID":60289,"ELEMENT_SET_NO":999,"REV_AT_EPOCH":9151,"BSTAR":-1.2344262e-5,"MEAN_MOTION_DOT":-7.25e-6,"MEAN_MOTION_DDOT":0}]
